CCSDS_OMM_VERS = 2.0
CREATION_DATE  = 
ORIGINATOR     = 

OBJECT_NAME    = STARLINK-36943
OBJECT_ID      = 2026-040W
CENTER_NAME    = EARTH
REF_FRAME      = TEME
TIME_SYSTEM    = UTC
MEAN_ELEMENT_THEORY = SGP/SGP4

EPOCH          = 2026-03-22T04:00:01.999584
MEAN_MOTION    = 15.75112937
ECCENTRICITY   = .00015633
INCLINATION    = 97.2848
RA_OF_ASC_NODE = 30.2658
ARG_OF_PERICENTER = 114.3800
MEAN_ANOMALY   = 165.1753

EPHEMERIS_TYPE = 0
CLASSIFICATION_TYPE = U
NORAD_CAT_ID   = 68035
ELEMENT_SET_NO = 999
REV_AT_EPOCH   = 448
BSTAR          = .12111624E-2
MEAN_MOTION_DOT = .183853E-2
MEAN_MOTION_DDOT = 0

CCSDS_OMM_VERS = 2.0
CREATION_DATE  = 
ORIGINATOR     = 

OBJECT_NAME    = STARLINK-36906
OBJECT_ID      = 2026-040X
CENTER_NAME    = EARTH
REF_FRAME      = TEME
TIME_SYSTEM    = UTC
MEAN_ELEMENT_THEORY = SGP/SGP4

EPOCH          = 2026-03-22T04:00:01.999584
MEAN_MOTION    = 15.75085014
ECCENTRICITY   = .0001686
INCLINATION    = 97.2844
RA_OF_ASC_NODE = 30.2586
ARG_OF_PERICENTER = 52.7850
MEAN_ANOMALY   = 216.7899

EPHEMERIS_TYPE = 0
CLASSIFICATION_TYPE = U
NORAD_CAT_ID   = 68036
ELEMENT_SET_NO = 999
REV_AT_EPOCH   = 443
BSTAR          = .1219821E-2
MEAN_MOTION_DOT = .18497E-2
MEAN_MOTION_DDOT = 0

CCSDS_OMM_VERS = 2.0
CREATION_DATE  = 
ORIGINATOR     = 

OBJECT_NAME    = STARLINK-36388
OBJECT_ID      = 2026-040Y
CENTER_NAME    = EARTH
REF_FRAME      = TEME
TIME_SYSTEM    = UTC
MEAN_ELEMENT_THEORY = SGP/SGP4

EPOCH          = 2026-03-22T04:00:01.999584
MEAN_MOTION    = 15.75058912
ECCENTRICITY   = .00014136
INCLINATION    = 97.2846
RA_OF_ASC_NODE = 30.2621
ARG_OF_PERICENTER = 55.9708
MEAN_ANOMALY   = 221.6015

EPHEMERIS_TYPE = 0
CLASSIFICATION_TYPE = U
NORAD_CAT_ID   = 68037
ELEMENT_SET_NO = 999
REV_AT_EPOCH   = 438
BSTAR          = .15088262E-2
MEAN_MOTION_DOT = .229778E-2
MEAN_MOTION_DDOT = 0

CCSDS_OMM_VERS = 2.0
CREATION_DATE  = 
ORIGINATOR     = 

OBJECT_NAME    = STARLINK-36895
OBJECT_ID      = 2026-040Z
CENTER_NAME    = EARTH
REF_FRAME      = TEME
TIME_SYSTEM    = UTC
MEAN_ELEMENT_THEORY = SGP/SGP4

EPOCH          = 2026-03-22T04:00:01.999584
MEAN_MOTION    = 15.75096093
ECCENTRICITY   = .00015296
INCLINATION    = 97.2853
RA_OF_ASC_NODE = 30.2539
ARG_OF_PERICENTER = 64.8991
MEAN_ANOMALY   = 200.6881

EPHEMERIS_TYPE = 0
CLASSIFICATION_TYPE = U
NORAD_CAT_ID   = 68038
ELEMENT_SET_NO = 999
REV_AT_EPOCH   = 443
BSTAR          = .11388018E-2
MEAN_MOTION_DOT = .172504E-2
MEAN_MOTION_DDOT = 0

CCSDS_OMM_VERS = 2.0
CREATION_DATE  = 
ORIGINATOR     = 

OBJECT_NAME    = STARLINK-36373
OBJECT_ID      = 2026-040AA
CENTER_NAME    = EARTH
REF_FRAME      = TEME
TIME_SYSTEM    = UTC
MEAN_ELEMENT_THEORY = SGP/SGP4

EPOCH          = 2026-03-22T04:00:01.999584
MEAN_MOTION    = 15.75120175
ECCENTRICITY   = .00015375
INCLINATION    = 97.2850
RA_OF_ASC_NODE = 30.2529
ARG_OF_PERICENTER = 112.3989
MEAN_ANOMALY   = 149.1643

EPHEMERIS_TYPE = 0
CLASSIFICATION_TYPE = U
NORAD_CAT_ID   = 68039
ELEMENT_SET_NO = 999
REV_AT_EPOCH   = 438
BSTAR          = .97791058E-3
MEAN_MOTION_DOT = .147837E-2
MEAN_MOTION_DDOT = 0

CCSDS_OMM_VERS = 2.0
CREATION_DATE  = 
ORIGINATOR     = 

OBJECT_NAME    = STARLINK-36711
OBJECT_ID      = 2026-041A
CENTER_NAME    = EARTH
REF_FRAME      = TEME
TIME_SYSTEM    = UTC
MEAN_ELEMENT_THEORY = SGP/SGP4

EPOCH          = 2026-03-22T04:55:28.739136
MEAN_MOTION    = 15.75211262
ECCENTRICITY   = .000112
INCLINATION    = 53.1589
RA_OF_ASC_NODE = 359.7291
ARG_OF_PERICENTER = 126.4545
MEAN_ANOMALY   = 233.6579

EPHEMERIS_TYPE = 0
CLASSIFICATION_TYPE = U
NORAD_CAT_ID   = 68040
ELEMENT_SET_NO = 999
REV_AT_EPOCH   = 319
BSTAR          = .15432544E-2
MEAN_MOTION_DOT = .242537E-2
MEAN_MOTION_DDOT = 0

CCSDS_OMM_VERS = 2.0
CREATION_DATE  = 
ORIGINATOR     = 

OBJECT_NAME    = STARLINK-36825
OBJECT_ID      = 2026-041B
CENTER_NAME    = EARTH
REF_FRAME      = TEME
TIME_SYSTEM    = UTC
MEAN_ELEMENT_THEORY = SGP/SGP4

EPOCH          = 2026-03-21T22:11:03.459840
MEAN_MOTION    = 15.80828385
ECCENTRICITY   = .00003141
INCLINATION    = 53.1593
RA_OF_ASC_NODE = 0.8089
ARG_OF_PERICENTER = 116.7850
MEAN_ANOMALY   = 243.3204

EPHEMERIS_TYPE = 0
CLASSIFICATION_TYPE = U
NORAD_CAT_ID   = 68041
ELEMENT_SET_NO = 999
REV_AT_EPOCH   = 315
BSTAR          = .86072788E-3
MEAN_MOTION_DOT = .172258E-2
MEAN_MOTION_DDOT = 0

CCSDS_OMM_VERS = 2.0
CREATION_DATE  = 
ORIGINATOR     = 

OBJECT_NAME    = STARLINK-36925
OBJECT_ID      = 2026-041C
CENTER_NAME    = EARTH
REF_FRAME      = TEME
TIME_SYSTEM    = UTC
MEAN_ELEMENT_THEORY = SGP/SGP4

EPOCH          = 2026-03-22T04:55:57.080928
MEAN_MOTION    = 15.75215534
ECCENTRICITY   = .00010151
INCLINATION    = 53.1588
RA_OF_ASC_NODE = 359.7309
ARG_OF_PERICENTER = 131.6880
MEAN_ANOMALY   = 228.4227

EPHEMERIS_TYPE = 0
CLASSIFICATION_TYPE = U
NORAD_CAT_ID   = 68042
ELEMENT_SET_NO = 999
REV_AT_EPOCH   = 319
BSTAR          = .16372385E-2
MEAN_MOTION_DOT = .257868E-2
MEAN_MOTION_DDOT = 0

CCSDS_OMM_VERS = 2.0
CREATION_DATE  = 
ORIGINATOR     = 

OBJECT_NAME    = STARLINK-36902
OBJECT_ID      = 2026-041D
CENTER_NAME    = EARTH
REF_FRAME      = TEME
TIME_SYSTEM    = UTC
MEAN_ELEMENT_THEORY = SGP/SGP4

EPOCH          = 2026-03-21T22:09:58.389408
MEAN_MOTION    = 15.80978153
ECCENTRICITY   = .00012194
INCLINATION    = 53.1589
RA_OF_ASC_NODE = 0.8058
ARG_OF_PERICENTER = 122.2762
MEAN_ANOMALY   = 237.8379

EPHEMERIS_TYPE = 0
CLASSIFICATION_TYPE = U
NORAD_CAT_ID   = 68043
ELEMENT_SET_NO = 999
REV_AT_EPOCH   = 315
BSTAR          = .15754678E-2
MEAN_MOTION_DOT = .323756E-2
MEAN_MOTION_DDOT = 0

CCSDS_OMM_VERS = 2.0
CREATION_DATE  = 
ORIGINATOR     = 

OBJECT_NAME    = STARLINK-36966
OBJECT_ID      = 2026-041E
CENTER_NAME    = EARTH
REF_FRAME      = TEME
TIME_SYSTEM    = UTC
MEAN_ELEMENT_THEORY = SGP/SGP4

EPOCH          = 2026-03-22T01:46:40.701216
MEAN_MOTION    = 15.75203248
ECCENTRICITY   = .00007031
INCLINATION    = 53.1594
RA_OF_ASC_NODE = 0.3321
ARG_OF_PERICENTER = 73.6183
MEAN_ANOMALY   = 286.4915

EPHEMERIS_TYPE = 0
CLASSIFICATION_TYPE = U
NORAD_CAT_ID   = 68044
ELEMENT_SET_NO = 999
REV_AT_EPOCH   = 317
BSTAR          = .91720582E-3
MEAN_MOTION_DOT = .142119E-2
MEAN_MOTION_DDOT = 0

CCSDS_OMM_VERS = 2.0
CREATION_DATE  = 
ORIGINATOR     = 

OBJECT_NAME    = STARLINK-36864
OBJECT_ID      = 2026-041F
CENTER_NAME    = EARTH
REF_FRAME      = TEME
TIME_SYSTEM    = UTC
MEAN_ELEMENT_THEORY = SGP/SGP4

EPOCH          = 2026-03-21T18:09:23.506848
MEAN_MOTION    = 15.75330405
ECCENTRICITY   = .00017442
INCLINATION    = 53.1596
RA_OF_ASC_NODE = 1.9058
ARG_OF_PERICENTER = 162.5114
MEAN_ANOMALY   = 197.5967

EPHEMERIS_TYPE = 0
CLASSIFICATION_TYPE = U
NORAD_CAT_ID   = 68045
ELEMENT_SET_NO = 999
REV_AT_EPOCH   = 312
BSTAR          = .28038153E-2
MEAN_MOTION_DOT = .454891E-2
MEAN_MOTION_DDOT = 0

CCSDS_OMM_VERS = 2.0
CREATION_DATE  = 
ORIGINATOR     = 

OBJECT_NAME    = STARLINK-36321
OBJECT_ID      = 2026-041G
CENTER_NAME    = EARTH
REF_FRAME      = TEME
TIME_SYSTEM    = UTC
MEAN_ELEMENT_THEORY = SGP/SGP4

EPOCH          = 2026-03-22T05:41:49.196544
MEAN_MOTION    = 15.78342933
ECCENTRICITY   = .00005676
INCLINATION    = 53.1591
RA_OF_ASC_NODE = 359.2054
ARG_OF_PERICENTER = 358.9617
MEAN_ANOMALY   = 1.1403

EPHEMERIS_TYPE = 0
CLASSIFICATION_TYPE = U
NORAD_CAT_ID   = 68046
ELEMENT_SET_NO = 999
REV_AT_EPOCH   = 320
BSTAR          = -.41361716E-2
MEAN_MOTION_DOT = -.673507E-2
MEAN_MOTION_DDOT = 0

