STARLINK-36943          
1 68035U 26040W   26081.16668981  .00183853  00000+0  12112-2 0  9992
2 68035  97.2848  30.2658 0001563 114.3800 165.1753 15.75112937  4483
STARLINK-36906          
1 68036U 26040X   26081.16668981  .00184970  00000+0  12198-2 0  9998
2 68036  97.2844  30.2586 0001686  52.7850 216.7899 15.75085014  4430
STARLINK-36388          
1 68037U 26040Y   26081.16668981  .00229778  00000+0  15088-2 0  9996
2 68037  97.2846  30.2621 0001413  55.9708 221.6015 15.75058912  4384
STARLINK-36895          
1 68038U 26040Z   26081.16668981  .00172504  00000+0  11388-2 0  9990
2 68038  97.2853  30.2539 0001529  64.8991 200.6881 15.75096093  4438
STARLINK-36373          
1 68039U 26040AA  26081.16668981  .00147837  00000+0  97791-3 0  9995
2 68039  97.2850  30.2529 0001537 112.3989 149.1643 15.75120175  4386
STARLINK-36711          
1 68040U 26041A   26081.20519374  .00242537  00000+0  15433-2 0  9999
2 68040  53.1589 359.7291 0001120 126.4545 233.6579 15.75211262  3198
STARLINK-36825          
1 68041U 26041B   26080.92434560  .00172258  00000+0  86073-3 0  9992
2 68041  53.1593   0.8089 0000314 116.7850 243.3204 15.80828385  3153
STARLINK-36925          
1 68042U 26041C   26081.20552177  .00257868  00000+0  16372-2 0  9995
2 68042  53.1588 359.7309 0001015 131.6880 228.4227 15.75215534  3190
STARLINK-36902          
1 68043U 26041D   26080.92359247  .00323756  00000+0  15755-2 0  9991
2 68043  53.1589   0.8058 0001219 122.2762 237.8379 15.80978153  3155
STARLINK-36966          
1 68044U 26041E   26081.07408219  .00142119  00000+0  91721-3 0  9993
2 68044  53.1594   0.3321 0000703  73.6183 286.4915 15.75203248  3171
STARLINK-36864          
1 68045U 26041F   26080.75652207  .00454891  00000+0  28038-2 0  9999
2 68045  53.1596   1.9058 0001744 162.5114 197.5967 15.75330405  3126
STARLINK-36321          
1 68046U 26041G   26081.23737496 -.00673507  00000+0 -41362-2 0  9992
2 68046  53.1591 359.2054 0000567 358.9617   1.1403 15.78342933  3204
